[{"OBJECT_NAME":"STARLINK-5917","OBJECT_ID":"2023-037AE","EPOCH":"2026-03-09T21:17:16.179648","MEAN_MOTION":14.98332359,"ECCENTRICITY":0.00027176,"INCLINATION":69.9981,"RA_OF_ASC_NODE":283.8005,"ARG_OF_PERICENTER":271.0484,"MEAN_ANOMALY":89.0363,"EPHEMERIS_TYPE":0,"CLASSIFICATION_TYPE":"U","NORAD_CAT_ID":55942,"ELEMENT_SET_NO":999,"REV_AT_EPOCH":16401,"BSTAR":-1.328756e-5,"MEAN_MOTION_DOT":-2.52e-6,"MEAN_MOTION_DDOT":0},{"OBJECT_NAME":"BRO-14","OBJECT_ID":"2024-149CM","EPOCH":"2026-03-09T19:21:31.034016","MEAN_MOTION":14.95926897,"ECCENTRICITY":0.000793,"INCLINATION":97.6931,"RA_OF_ASC_NODE":146.3614,"ARG_OF_PERICENTER":74.9836,"MEAN_ANOMALY":285.2263,"EPHEMERIS_TYPE":0,"CLASSIFICATION_TYPE":"U","NORAD_CAT_ID":60551,"ELEMENT_SET_NO":999,"REV_AT_EPOCH":8513,"BSTAR":0.00014547278,"MEAN_MOTION_DOT":1.572e-5,"MEAN_MOTION_DDOT":0}]
